{
  "name": "OpenMapTiles",
  "id": "tokyo-vector-tile",
  "description": "A tileset showcasing all layers in OpenMapTiles. https://openmaptiles.org",
  "version": "2",
  "minzoom": 0,
  "maxzoom": 14,
  "center": [
    139.69167,
    35.689444
  ],
  "bounds": [
    -180,
    -85.0511,
    180,
    85.0511
  ],
  "attribution": "<a href=\"https://www.openmaptiles.org/\" target=\"_blank\">&copy; OpenMapTiles</a> <a href=\"https://www.openstreetmap.org/copyright\" target=\"_blank\">&copy; OpenStreetMap contributors</a>",
  "format": "pbf",
  "pixel_scale": 256,
  "tilejson": "2.0.0",
  "tiles": [
    "zxy/{z}/{x}/{y}.pbf"
  ],
  "vector_layers": [
    {
      "id": "aerodrome_label",
      "description": "",
      "minzoom": 10,
      "maxzoom": 14,
      "fields": {
        "class": "String",
        "ele": "Number",
        "ele_ft": "Number",
        "iata": "String",
        "icao": "String",
        "name": "String",
        "name:en": "String",
        "name:es": "String",
        "name:fr": "String",
        "name:it": "String",
        "name:ja": "String",
        "name:ja_kana": "String",
        "name:ja_rm": "String",
        "name:ko": "String",
        "name:latin": "String",
        "name:nonlatin": "String",
        "name:ru": "String",
        "name:zh": "String",
        "name_de": "String",
        "name_en": "String",
        "name_int": "String"
      }
    },
    {
      "id": "aeroway",
      "description": "",
      "minzoom": 10,
      "maxzoom": 14,
      "fields": {
        "class": "String",
        "ref": "String"
      }
    },
    {
      "id": "boundary",
      "description": "",
      "minzoom": 0,
      "maxzoom": 14,
      "fields": {
        "admin_level": "Number",
        "disputed": "Number",
        "maritime": "Number"
      }
    },
    {
      "id": "building",
      "description": "",
      "minzoom": 13,
      "maxzoom": 14,
      "fields": {
        "colour": "String",
        "hide_3d": "Boolean",
        "render_height": "Number",
        "render_min_height": "Number"
      }
    },
    {
      "id": "housenumber",
      "description": "",
      "minzoom": 14,
      "maxzoom": 14,
      "fields": {
        "housenumber": "String"
      }
    },
    {
      "id": "landcover",
      "description": "",
      "minzoom": 0,
      "maxzoom": 14,
      "fields": {
        "class": "String",
        "subclass": "String"
      }
    },
    {
      "id": "landuse",
      "description": "",
      "minzoom": 4,
      "maxzoom": 14,
      "fields": {
        "class": "String"
      }
    },
    {
      "id": "mountain_peak",
      "description": "",
      "minzoom": 7,
      "maxzoom": 14,
      "fields": {
        "class": "String",
        "ele": "Number",
        "ele_ft": "Number",
        "name": "String",
        "name:de": "String",
        "name:en": "String",
        "name:es": "String",
        "name:fr": "String",
        "name:it": "String",
        "name:ja": "String",
        "name:ja_kana": "String",
        "name:ja_rm": "String",
        "name:latin": "String",
        "name:nonlatin": "String",
        "name:ru": "String",
        "name:uk": "String",
        "name_de": "String",
        "name_en": "String",
        "name_int": "String",
        "rank": "Number"
      }
    },
    {
      "id": "park",
      "description": "",
      "minzoom": 8,
      "maxzoom": 14,
      "fields": {
        "class": "String",
        "name": "String",
        "name:en": "String",
        "name:es": "String",
        "name:ja": "String",
        "name:ja_rm": "String",
        "name:latin": "String",
        "name:nonlatin": "String",
        "name_de": "String",
        "name_en": "String",
        "name_int": "String",
        "rank": "Number"
      }
    },
    {
      "id": "place",
      "description": "",
      "minzoom": 2,
      "maxzoom": 14,
      "fields": {
        "capital": "Number",
        "class": "String",
        "iso_a2": "String",
        "name": "String",
        "name:am": "String",
        "name:ar": "String",
        "name:az": "String",
        "name:be": "String",
        "name:bg": "String",
        "name:br": "String",
        "name:bs": "String",
        "name:ca": "String",
        "name:cs": "String",
        "name:cy": "String",
        "name:da": "String",
        "name:de": "String",
        "name:el": "String",
        "name:en": "String",
        "name:eo": "String",
        "name:es": "String",
        "name:et": "String",
        "name:eu": "String",
        "name:fi": "String",
        "name:fr": "String",
        "name:fy": "String",
        "name:ga": "String",
        "name:gd": "String",
        "name:he": "String",
        "name:hr": "String",
        "name:hu": "String",
        "name:hy": "String",
        "name:id": "String",
        "name:is": "String",
        "name:it": "String",
        "name:ja": "String",
        "name:ja_kana": "String",
        "name:ja_rm": "String",
        "name:ka": "String",
        "name:kk": "String",
        "name:kn": "String",
        "name:ko": "String",
        "name:ku": "String",
        "name:la": "String",
        "name:latin": "String",
        "name:lb": "String",
        "name:lt": "String",
        "name:lv": "String",
        "name:mk": "String",
        "name:ml": "String",
        "name:mt": "String",
        "name:nl": "String",
        "name:no": "String",
        "name:nonlatin": "String",
        "name:oc": "String",
        "name:pl": "String",
        "name:pt": "String",
        "name:rm": "String",
        "name:ro": "String",
        "name:ru": "String",
        "name:sk": "String",
        "name:sl": "String",
        "name:sq": "String",
        "name:sr": "String",
        "name:sv": "String",
        "name:th": "String",
        "name:tr": "String",
        "name:uk": "String",
        "name:zh": "String",
        "name_de": "String",
        "name_en": "String",
        "name_int": "String",
        "rank": "Number"
      }
    },
    {
      "id": "poi",
      "description": "",
      "minzoom": 12,
      "maxzoom": 14,
      "fields": {
        "agg_stop": "Number",
        "class": "String",
        "indoor": "Number",
        "layer": "Number",
        "level": "Number",
        "name": "String",
        "name:ar": "String",
        "name:bs": "String",
        "name:ca": "String",
        "name:cs": "String",
        "name:cy": "String",
        "name:da": "String",
        "name:de": "String",
        "name:el": "String",
        "name:en": "String",
        "name:eo": "String",
        "name:es": "String",
        "name:et": "String",
        "name:fi": "String",
        "name:fr": "String",
        "name:he": "String",
        "name:hr": "String",
        "name:hu": "String",
        "name:id": "String",
        "name:is": "String",
        "name:it": "String",
        "name:ja": "String",
        "name:ja_kana": "String",
        "name:ja_rm": "String",
        "name:kn": "String",
        "name:ko": "String",
        "name:ko_rm": "String",
        "name:ku": "String",
        "name:latin": "String",
        "name:lb": "String",
        "name:lt": "String",
        "name:lv": "String",
        "name:nl": "String",
        "name:nonlatin": "String",
        "name:oc": "String",
        "name:pl": "String",
        "name:pt": "String",
        "name:rm": "String",
        "name:ru": "String",
        "name:sk": "String",
        "name:sl": "String",
        "name:sq": "String",
        "name:sr": "String",
        "name:sv": "String",
        "name:th": "String",
        "name:tr": "String",
        "name:uk": "String",
        "name:zh": "String",
        "name_de": "String",
        "name_en": "String",
        "name_int": "String",
        "rank": "Number",
        "subclass": "String"
      }
    },
    {
      "id": "transportation",
      "description": "",
      "minzoom": 4,
      "maxzoom": 14,
      "fields": {
        "bicycle": "String",
        "brunnel": "String",
        "class": "String",
        "foot": "String",
        "horse": "String",
        "indoor": "Number",
        "layer": "Number",
        "level": "Number",
        "mtb_scale": "String",
        "oneway": "Number",
        "ramp": "Number",
        "service": "String",
        "subclass": "String",
        "surface": "String"
      }
    },
    {
      "id": "transportation_name",
      "description": "",
      "minzoom": 6,
      "maxzoom": 14,
      "fields": {
        "class": "String",
        "indoor": "Number",
        "layer": "Number",
        "level": "Number",
        "name": "String",
        "name:de": "String",
        "name:en": "String",
        "name:es": "String",
        "name:fr": "String",
        "name:it": "String",
        "name:ja": "String",
        "name:ja_kana": "String",
        "name:ja_rm": "String",
        "name:ko": "String",
        "name:latin": "String",
        "name:nonlatin": "String",
        "name:ru": "String",
        "name:zh": "String",
        "name_de": "String",
        "name_en": "String",
        "name_int": "String",
        "network": "String",
        "ref": "String",
        "ref_length": "Number",
        "subclass": "String"
      }
    },
    {
      "id": "water",
      "description": "",
      "minzoom": 0,
      "maxzoom": 14,
      "fields": {
        "brunnel": "String",
        "class": "String",
        "intermittent": "Number"
      }
    },
    {
      "id": "water_name",
      "description": "",
      "minzoom": 9,
      "maxzoom": 14,
      "fields": {
        "class": "String",
        "intermittent": "Number",
        "name": "String",
        "name:en": "String",
        "name:eo": "String",
        "name:es": "String",
        "name:fr": "String",
        "name:hu": "String",
        "name:ja": "String",
        "name:ja_kana": "String",
        "name:ja_rm": "String",
        "name:ko": "String",
        "name:latin": "String",
        "name:nonlatin": "String",
        "name:ru": "String",
        "name:zh": "String",
        "name_de": "String",
        "name_en": "String",
        "name_int": "String"
      }
    },
    {
      "id": "waterway",
      "description": "",
      "minzoom": 6,
      "maxzoom": 14,
      "fields": {
        "brunnel": "String",
        "class": "String",
        "intermittent": "Number",
        "name": "String",
        "name:de": "String",
        "name:en": "String",
        "name:es": "String",
        "name:ja": "String",
        "name:ja_kana": "String",
        "name:ja_rm": "String",
        "name:ko": "String",
        "name:latin": "String",
        "name:nonlatin": "String",
        "name:ru": "String",
        "name:uk": "String",
        "name:zh": "String",
        "name_de": "String",
        "name_en": "String",
        "name_int": "String"
      }
    }
  ]
}
